KUIPER-00035            
1 63748U 25088AA  26001.38007722  .00004837  00000+0  66298-3 0  9994
2 63748  51.9017  51.7572 0005702 207.5812 152.4848 14.79940838 37543
KUIPER-00037            
1 63749U 25088AB  26001.31422799  .00006216  00000+0  84333-3 0  9996
2 63749  51.9007  50.9936 0000541 147.4469 212.6527 14.79945752 38335
KUIPER-00038            
1 63750U 25088AC  26001.46535468 -.00001245  00000+0 -13405-3 0  9993
2 63750  51.9026  35.3437 0006492 212.9960 147.0597 14.79946452 37566
KUIPER-00039            
1 64500U 25134A   26001.84318311  .00006248  00000+0  84685-3 0  9991
2 64500  51.8991 168.6773 0011536  68.5182 291.7010 14.79957373 30170
KUIPER-00040            
1 64501U 25134B   26001.89837164  .00005079  00000+0  69398-3 0  9994
2 64501  51.8982 179.5870 0016805  49.1865 311.0551 14.79916687 30020
KUIPER-00041            
1 64502U 25134C   26001.89731111  .00015120  00000+0  20047-2 0  9995
2 64502  51.8964 180.9469 0012665  48.8960 311.3094 14.79953440 30004
KUIPER-00042            
1 64503U 25134D   26001.90101306  .00005134  00000+0  70063-3 0  9993
2 64503  51.8974 176.9344 0012888  59.7450 300.4786 14.79979999 30065
KUIPER-00043            
1 64504U 25134E   26001.84157000 -.00001721  00000+0 -19682-3 0  9999
2 64504  51.9010 169.6478 0003536  81.0336 279.1026 14.79902902 30166
