<?xml version="1.0" encoding="UTF-8"?>
<ndm xmlns:xsi="http://www.w3.org/2001/XMLSchema-instance" xsi:noNamespaceSchemaLocation="https://sanaregistry.org/r/ndmxml_unqualified/ndmxml-2.0.0-master-2.0.xsd">
<omm id="CCSDS_OMM_VERS" version="2.0">
<header><CREATION_DATE/><ORIGINATOR/></header><body><segment><metadata><OBJECT_NAME>KUIPER-00035</OBJECT_NAME><OBJECT_ID>2025-088AA</OBJECT_ID><CENTER_NAME>EARTH</CENTER_NAME><REF_FRAME>TEME</REF_FRAME><TIME_SYSTEM>UTC</TIME_SYSTEM><MEAN_ELEMENT_THEORY>SGP4</MEAN_ELEMENT_THEORY></metadata><data><meanElements><EPOCH>2026-01-01T09:07:18.671808</EPOCH><MEAN_MOTION>14.79940838</MEAN_MOTION><ECCENTRICITY>.0005702</ECCENTRICITY><INCLINATION>51.9017</INCLINATION><RA_OF_ASC_NODE>51.7572</RA_OF_ASC_NODE><ARG_OF_PERICENTER>207.5812</ARG_OF_PERICENTER><MEAN_ANOMALY>152.4848</MEAN_ANOMALY></meanElements><tleParameters><EPHEMERIS_TYPE>0</EPHEMERIS_TYPE><CLASSIFICATION_TYPE>U</CLASSIFICATION_TYPE><NORAD_CAT_ID>63748</NORAD_CAT_ID><ELEMENT_SET_NO>999</ELEMENT_SET_NO><REV_AT_EPOCH>3754</REV_AT_EPOCH><BSTAR>.66298E-3</BSTAR><MEAN_MOTION_DOT>.4837E-4</MEAN_MOTION_DOT><MEAN_MOTION_DDOT>0</MEAN_MOTION_DDOT></tleParameters></data></segment></body></omm>
<omm id="CCSDS_OMM_VERS" version="2.0">
<header><CREATION_DATE/><ORIGINATOR/></header><body><segment><metadata><OBJECT_NAME>KUIPER-00037</OBJECT_NAME><OBJECT_ID>2025-088AB</OBJECT_ID><CENTER_NAME>EARTH</CENTER_NAME><REF_FRAME>TEME</REF_FRAME><TIME_SYSTEM>UTC</TIME_SYSTEM><MEAN_ELEMENT_THEORY>SGP4</MEAN_ELEMENT_THEORY></metadata><data><meanElements><EPOCH>2026-01-01T07:32:29.298336</EPOCH><MEAN_MOTION>14.79945752</MEAN_MOTION><ECCENTRICITY>.0000541</ECCENTRICITY><INCLINATION>51.9007</INCLINATION><RA_OF_ASC_NODE>50.9936</RA_OF_ASC_NODE><ARG_OF_PERICENTER>147.4469</ARG_OF_PERICENTER><MEAN_ANOMALY>212.6527</MEAN_ANOMALY></meanElements><tleParameters><EPHEMERIS_TYPE>0</EPHEMERIS_TYPE><CLASSIFICATION_TYPE>U</CLASSIFICATION_TYPE><NORAD_CAT_ID>63749</NORAD_CAT_ID><ELEMENT_SET_NO>999</ELEMENT_SET_NO><REV_AT_EPOCH>3833</REV_AT_EPOCH><BSTAR>.84333E-3</BSTAR><MEAN_MOTION_DOT>.6216E-4</MEAN_MOTION_DOT><MEAN_MOTION_DDOT>0</MEAN_MOTION_DDOT></tleParameters></data></segment></body></omm>
<omm id="CCSDS_OMM_VERS" version="2.0">
<header><CREATION_DATE/><ORIGINATOR/></header><body><segment><metadata><OBJECT_NAME>KUIPER-00038</OBJECT_NAME><OBJECT_ID>2025-088AC</OBJECT_ID><CENTER_NAME>EARTH</CENTER_NAME><REF_FRAME>TEME</REF_FRAME><TIME_SYSTEM>UTC</TIME_SYSTEM><MEAN_ELEMENT_THEORY>SGP4</MEAN_ELEMENT_THEORY></metadata><data><meanElements><EPOCH>2026-01-01T11:10:06.644352</EPOCH><MEAN_MOTION>14.79946452</MEAN_MOTION><ECCENTRICITY>.0006492</ECCENTRICITY><INCLINATION>51.9026</INCLINATION><RA_OF_ASC_NODE>35.3437</RA_OF_ASC_NODE><ARG_OF_PERICENTER>212.9960</ARG_OF_PERICENTER><MEAN_ANOMALY>147.0597</MEAN_ANOMALY></meanElements><tleParameters><EPHEMERIS_TYPE>0</EPHEMERIS_TYPE><CLASSIFICATION_TYPE>U</CLASSIFICATION_TYPE><NORAD_CAT_ID>63750</NORAD_CAT_ID><ELEMENT_SET_NO>999</ELEMENT_SET_NO><REV_AT_EPOCH>3756</REV_AT_EPOCH><BSTAR>-.13405E-3</BSTAR><MEAN_MOTION_DOT>-.1245E-4</MEAN_MOTION_DOT><MEAN_MOTION_DDOT>0</MEAN_MOTION_DDOT></tleParameters></data></segment></body></omm>
<omm id="CCSDS_OMM_VERS" version="2.0">
<header><CREATION_DATE/><ORIGINATOR/></header><body><segment><metadata><OBJECT_NAME>KUIPER-00039</OBJECT_NAME><OBJECT_ID>2025-134A</OBJECT_ID><CENTER_NAME>EARTH</CENTER_NAME><REF_FRAME>TEME</REF_FRAME><TIME_SYSTEM>UTC</TIME_SYSTEM><MEAN_ELEMENT_THEORY>SGP4</MEAN_ELEMENT_THEORY></metadata><data><meanElements><EPOCH>2026-01-01T20:14:11.020704</EPOCH><MEAN_MOTION>14.79957373</MEAN_MOTION><ECCENTRICITY>.00115366</ECCENTRICITY><INCLINATION>51.8991</INCLINATION><RA_OF_ASC_NODE>168.6773</RA_OF_ASC_NODE><ARG_OF_PERICENTER>68.5182</ARG_OF_PERICENTER><MEAN_ANOMALY>291.7010</MEAN_ANOMALY></meanElements><tleParameters><EPHEMERIS_TYPE>0</EPHEMERIS_TYPE><CLASSIFICATION_TYPE>U</CLASSIFICATION_TYPE><NORAD_CAT_ID>64500</NORAD_CAT_ID><ELEMENT_SET_NO>999</ELEMENT_SET_NO><REV_AT_EPOCH>3017</REV_AT_EPOCH><BSTAR>.84685218E-3</BSTAR><MEAN_MOTION_DOT>.6248E-4</MEAN_MOTION_DOT><MEAN_MOTION_DDOT>0</MEAN_MOTION_DDOT></tleParameters></data></segment></body></omm>
<omm id="CCSDS_OMM_VERS" version="2.0">
<header><CREATION_DATE/><ORIGINATOR/></header><body><segment><metadata><OBJECT_NAME>KUIPER-00040</OBJECT_NAME><OBJECT_ID>2025-134B</OBJECT_ID><CENTER_NAME>EARTH</CENTER_NAME><REF_FRAME>TEME</REF_FRAME><TIME_SYSTEM>UTC</TIME_SYSTEM><MEAN_ELEMENT_THEORY>SGP4</MEAN_ELEMENT_THEORY></metadata><data><meanElements><EPOCH>2026-01-01T21:33:39.309696</EPOCH><MEAN_MOTION>14.79916687</MEAN_MOTION><ECCENTRICITY>.0016805</ECCENTRICITY><INCLINATION>51.8982</INCLINATION><RA_OF_ASC_NODE>179.5870</RA_OF_ASC_NODE><ARG_OF_PERICENTER>49.1865</ARG_OF_PERICENTER><MEAN_ANOMALY>311.0551</MEAN_ANOMALY></meanElements><tleParameters><EPHEMERIS_TYPE>0</EPHEMERIS_TYPE><CLASSIFICATION_TYPE>U</CLASSIFICATION_TYPE><NORAD_CAT_ID>64501</NORAD_CAT_ID><ELEMENT_SET_NO>999</ELEMENT_SET_NO><REV_AT_EPOCH>3002</REV_AT_EPOCH><BSTAR>.69398371E-3</BSTAR><MEAN_MOTION_DOT>.5079E-4</MEAN_MOTION_DOT><MEAN_MOTION_DDOT>0</MEAN_MOTION_DDOT></tleParameters></data></segment></body></omm>
<omm id="CCSDS_OMM_VERS" version="2.0">
<header><CREATION_DATE/><ORIGINATOR/></header><body><segment><metadata><OBJECT_NAME>KUIPER-00041</OBJECT_NAME><OBJECT_ID>2025-134C</OBJECT_ID><CENTER_NAME>EARTH</CENTER_NAME><REF_FRAME>TEME</REF_FRAME><TIME_SYSTEM>UTC</TIME_SYSTEM><MEAN_ELEMENT_THEORY>SGP4</MEAN_ELEMENT_THEORY></metadata><data><meanElements><EPOCH>2026-01-01T21:32:07.679904</EPOCH><MEAN_MOTION>14.79953440</MEAN_MOTION><ECCENTRICITY>.00126654</ECCENTRICITY><INCLINATION>51.8964</INCLINATION><RA_OF_ASC_NODE>180.9469</RA_OF_ASC_NODE><ARG_OF_PERICENTER>48.8960</ARG_OF_PERICENTER><MEAN_ANOMALY>311.3094</MEAN_ANOMALY></meanElements><tleParameters><EPHEMERIS_TYPE>0</EPHEMERIS_TYPE><CLASSIFICATION_TYPE>U</CLASSIFICATION_TYPE><NORAD_CAT_ID>64502</NORAD_CAT_ID><ELEMENT_SET_NO>999</ELEMENT_SET_NO><REV_AT_EPOCH>3000</REV_AT_EPOCH><BSTAR>.20047402E-2</BSTAR><MEAN_MOTION_DOT>.1512E-3</MEAN_MOTION_DOT><MEAN_MOTION_DDOT>0</MEAN_MOTION_DDOT></tleParameters></data></segment></body></omm>
<omm id="CCSDS_OMM_VERS" version="2.0">
<header><CREATION_DATE/><ORIGINATOR/></header><body><segment><metadata><OBJECT_NAME>KUIPER-00042</OBJECT_NAME><OBJECT_ID>2025-134D</OBJECT_ID><CENTER_NAME>EARTH</CENTER_NAME><REF_FRAME>TEME</REF_FRAME><TIME_SYSTEM>UTC</TIME_SYSTEM><MEAN_ELEMENT_THEORY>SGP4</MEAN_ELEMENT_THEORY></metadata><data><meanElements><EPOCH>2026-01-01T21:37:27.528384</EPOCH><MEAN_MOTION>14.79979999</MEAN_MOTION><ECCENTRICITY>.00128887</ECCENTRICITY><INCLINATION>51.8974</INCLINATION><RA_OF_ASC_NODE>176.9344</RA_OF_ASC_NODE><ARG_OF_PERICENTER>59.7450</ARG_OF_PERICENTER><MEAN_ANOMALY>300.4786</MEAN_ANOMALY></meanElements><tleParameters><EPHEMERIS_TYPE>0</EPHEMERIS_TYPE><CLASSIFICATION_TYPE>U</CLASSIFICATION_TYPE><NORAD_CAT_ID>64503</NORAD_CAT_ID><ELEMENT_SET_NO>999</ELEMENT_SET_NO><REV_AT_EPOCH>3006</REV_AT_EPOCH><BSTAR>.70062912E-3</BSTAR><MEAN_MOTION_DOT>.5134E-4</MEAN_MOTION_DOT><MEAN_MOTION_DDOT>0</MEAN_MOTION_DDOT></tleParameters></data></segment></body></omm>
<omm id="CCSDS_OMM_VERS" version="2.0">
<header><CREATION_DATE/><ORIGINATOR/></header><body><segment><metadata><OBJECT_NAME>KUIPER-00043</OBJECT_NAME><OBJECT_ID>2025-134E</OBJECT_ID><CENTER_NAME>EARTH</CENTER_NAME><REF_FRAME>TEME</REF_FRAME><TIME_SYSTEM>UTC</TIME_SYSTEM><MEAN_ELEMENT_THEORY>SGP4</MEAN_ELEMENT_THEORY></metadata><data><meanElements><EPOCH>2026-01-01T20:11:51.648000</EPOCH><MEAN_MOTION>14.79902902</MEAN_MOTION><ECCENTRICITY>.00035362</ECCENTRICITY><INCLINATION>51.9010</INCLINATION><RA_OF_ASC_NODE>169.6478</RA_OF_ASC_NODE><ARG_OF_PERICENTER>81.0336</ARG_OF_PERICENTER><MEAN_ANOMALY>279.1026</MEAN_ANOMALY></meanElements><tleParameters><EPHEMERIS_TYPE>0</EPHEMERIS_TYPE><CLASSIFICATION_TYPE>U</CLASSIFICATION_TYPE><NORAD_CAT_ID>64504</NORAD_CAT_ID><ELEMENT_SET_NO>999</ELEMENT_SET_NO><REV_AT_EPOCH>3016</REV_AT_EPOCH><BSTAR>-.19681966E-3</BSTAR><MEAN_MOTION_DOT>-.1721E-4</MEAN_MOTION_DOT><MEAN_MOTION_DDOT>0</MEAN_MOTION_DDOT></tleParameters></data></segment></body></omm>

</ndm>
